{
    "type": "FeatureCollection",
    "features": [
        {
            "type": "Feature",
            "geometry": {
                "type": "Point",
                "coordinates": [
                    132.432152,
                    34.36998
                ]
            },
            "properties": {
                "PriceCategory": "不動産取引価格情報",
                "Type": "宅地(土地と建物)",
                "Region": "住宅地",
                "MunicipalityCode": "34101",
                "Prefecture": "広島県",
                "Municipality": "広島市中区",
                "DistrictName": "江波二本松",
                "TradePrice": "23000000",
                "PricePerUnit": "",
                "FloorPlan": "",
                "Area": "170",
                "UnitPrice": "",
                "LandShape": "長方形",
                "Frontage": "10.5",
                "TotalFloorArea": "75",
                "BuildingYear": "2020年",
                "Structure": "",
                "Use": "住宅",
                "Purpose": "住宅",
                "Direction": "南西",
                "Classification": "私道",
                "Breadth": "3.5",
                "CityPlanning": "近隣商業地域",
                "CoverageRatio": "80",
                "FloorAreaRatio": "300",
                "Period": "2025年第2四半期",
                "Renovation": "",
                "Remarks": "関係者間取引",
                "DistrictCode": "341010050",
                "lat": "34.36998",
                "lon": "132.432152"
            }
        },
        {
            "type": "Feature",
            "geometry": {
                "type": "Point",
                "coordinates": [
                    132.432152,
                    34.36998
                ]
            },
            "properties": {
                "PriceCategory": "不動産取引価格情報",
                "Type": "宅地(土地と建物)",
                "Region": "住宅地",
                "MunicipalityCode": "34101",
                "Prefecture": "広島県",
                "Municipality": "広島市中区",
                "DistrictName": "江波二本松",
                "TradePrice": "310000000",
                "PricePerUnit": "",
                "FloorPlan": "",
                "Area": "440",
                "UnitPrice": "",
                "LandShape": "ほぼ長方形",
                "Frontage": "18.5",
                "TotalFloorArea": "500",
                "BuildingYear": "2025年",
                "Structure": "軽量鉄骨造",
                "Use": "共同住宅",
                "Purpose": "住宅",
                "Direction": "南西",
                "Classification": "市道",
                "Breadth": "5.4",
                "CityPlanning": "第１種住居地域",
                "CoverageRatio": "60",
                "FloorAreaRatio": "200",
                "Period": "2025年第2四半期",
                "Renovation": "",
                "Remarks": "",
                "DistrictCode": "341010050",
                "lat": "34.36998",
                "lon": "132.432152"
            }
        },
        {
            "type": "Feature",
            "geometry": {
                "type": "Point",
                "coordinates": [
                    132.448643,
                    34.387479
                ]
            },
            "properties": {
                "PriceCategory": "不動産取引価格情報",
                "Type": "宅地(土地と建物)",
                "Region": "商業地",
                "MunicipalityCode": "34101",
                "Prefecture": "広島県",
                "Municipality": "広島市中区",
                "DistrictName": "加古町",
                "TradePrice": "17000000",
                "PricePerUnit": "",
                "FloorPlan": "",
                "Area": "100",
                "UnitPrice": "",
                "LandShape": "長方形",
                "Frontage": "5.5",
                "TotalFloorArea": "",
                "BuildingYear": "",
                "Structure": "",
                "Use": "",
                "Purpose": "その他",
                "Direction": "西",
                "Classification": "市道",
                "Breadth": "25",
                "CityPlanning": "近隣商業地域",
                "CoverageRatio": "80",
                "FloorAreaRatio": "400",
                "Period": "2025年第2四半期",
                "Renovation": "",
                "Remarks": "",
                "DistrictCode": "341010110",
                "lat": "34.387479",
                "lon": "132.448643"
            }
        },
        {
            "type": "Feature",
            "geometry": {
                "type": "Point",
                "coordinates": [
                    132.467644,
                    34.399344
                ]
            },
            "properties": {
                "PriceCategory": "不動産取引価格情報",
                "Type": "中古マンション等",
                "Region": "",
                "MunicipalityCode": "34101",
                "Prefecture": "広島県",
                "Municipality": "広島市中区",
                "DistrictName": "上幟町",
                "TradePrice": "49000000",
                "PricePerUnit": "",
                "FloorPlan": "２ＬＤＫ",
                "Area": "60",
                "UnitPrice": "",
                "LandShape": "",
                "Frontage": "",
                "TotalFloorArea": "",
                "BuildingYear": "2021年",
                "Structure": "ＲＣ",
                "Use": "",
                "Purpose": "住宅",
                "Direction": "",
                "Classification": "",
                "Breadth": "",
                "CityPlanning": "商業地域",
                "CoverageRatio": "80",
                "FloorAreaRatio": "600",
                "Period": "2025年第2四半期",
                "Renovation": "未改装",
                "Remarks": "",
                "DistrictCode": "341010130",
                "lat": "34.399344",
                "lon": "132.467644"
            }
        },
        {
            "type": "Feature",
            "geometry": {
                "type": "Point",
                "coordinates": [
                    132.467644,
                    34.399344
                ]
            },
            "properties": {
                "PriceCategory": "不動産取引価格情報",
                "Type": "中古マンション等",
                "Region": "",
                "MunicipalityCode": "34101",
                "Prefecture": "広島県",
                "Municipality": "広島市中区",
                "DistrictName": "上幟町",
                "TradePrice": "26000000",
                "PricePerUnit": "",
                "FloorPlan": "１ＬＤＫ",
                "Area": "30",
                "UnitPrice": "",
                "LandShape": "",
                "Frontage": "",
                "TotalFloorArea": "",
                "BuildingYear": "2021年",
                "Structure": "ＲＣ",
                "Use": "",
                "Purpose": "住宅",
                "Direction": "",
                "Classification": "",
                "Breadth": "",
                "CityPlanning": "商業地域",
                "CoverageRatio": "80",
                "FloorAreaRatio": "600",
                "Period": "2025年第2四半期",
                "Renovation": "未改装",
                "Remarks": "",
                "DistrictCode": "341010130",
                "lat": "34.399344",
                "lon": "132.467644"
            }
        },
        {
            "type": "Feature",
            "geometry": {
                "type": "Point",
                "coordinates": [
                    132.45771,
                    34.388026
                ]
            },
            "properties": {
                "PriceCategory": "不動産取引価格情報",
                "Type": "中古マンション等",
                "Region": "",
                "MunicipalityCode": "34101",
                "Prefecture": "広島県",
                "Municipality": "広島市中区",
                "DistrictName": "小町",
                "TradePrice": "44000000",
                "PricePerUnit": "",
                "FloorPlan": "２ＬＤＫ",
                "Area": "60",
                "UnitPrice": "",
                "LandShape": "",
                "Frontage": "",
                "TotalFloorArea": "",
                "BuildingYear": "2014年",
                "Structure": "ＳＲＣ",
                "Use": "住宅",
                "Purpose": "住宅",
                "Direction": "",
                "Classification": "",
                "Breadth": "",
                "CityPlanning": "商業地域",
                "CoverageRatio": "80",
                "FloorAreaRatio": "800",
                "Period": "2025年第2四半期",
                "Renovation": "未改装",
                "Remarks": "",
                "DistrictCode": "341010200",
                "lat": "34.388026",
                "lon": "132.45771"
            }
        },
        {
            "type": "Feature",
            "geometry": {
                "type": "Point",
                "coordinates": [
                    132.461636,
                    34.386592
                ]
            },
            "properties": {
                "PriceCategory": "不動産取引価格情報",
                "Type": "宅地(土地)",
                "Region": "商業地",
                "MunicipalityCode": "34101",
                "Prefecture": "広島県",
                "Municipality": "広島市中区",
                "DistrictName": "富士見町",
                "TradePrice": "80000000",
                "PricePerUnit": "3000000",
                "FloorPlan": "",
                "Area": "90",
                "UnitPrice": "900000",
                "LandShape": "台形",
                "Frontage": "8.4",
                "TotalFloorArea": "",
                "BuildingYear": "",
                "Structure": "",
                "Use": "",
                "Purpose": "その他",
                "Direction": "南東",
                "Classification": "市道",
                "Breadth": "8",
                "CityPlanning": "商業地域",
                "CoverageRatio": "80",
                "FloorAreaRatio": "700",
                "Period": "2025年第2四半期",
                "Renovation": "",
                "Remarks": "",
                "DistrictCode": "341010570",
                "lat": "34.386592",
                "lon": "132.461636"
            }
        },
        {
            "type": "Feature",
            "geometry": {
                "type": "Point",
                "coordinates": [
                    132.443702,
                    34.385244
                ]
            },
            "properties": {
                "PriceCategory": "不動産取引価格情報",
                "Type": "宅地(土地と建物)",
                "Region": "商業地",
                "MunicipalityCode": "34101",
                "Prefecture": "広島県",
                "Municipality": "広島市中区",
                "DistrictName": "舟入本町",
                "TradePrice": "100000000",
                "PricePerUnit": "",
                "FloorPlan": "",
                "Area": "260",
                "UnitPrice": "",
                "LandShape": "ほぼ整形",
                "Frontage": "21.3",
                "TotalFloorArea": "330",
                "BuildingYear": "1980年",
                "Structure": "ＲＣ",
                "Use": "住宅、店舗",
                "Purpose": "その他",
                "Direction": "北西",
                "Classification": "市道",
                "Breadth": "10",
                "CityPlanning": "商業地域",
                "CoverageRatio": "80",
                "FloorAreaRatio": "400",
                "Period": "2025年第2四半期",
                "Renovation": "",
                "Remarks": "",
                "DistrictCode": "341010610",
                "lat": "34.385244",
                "lon": "132.443702"
            }
        },
        {
            "type": "Feature",
            "geometry": {
                "type": "Point",
                "coordinates": [
                    132.441318,
                    34.378378
                ]
            },
            "properties": {
                "PriceCategory": "不動産取引価格情報",
                "Type": "宅地(土地)",
                "Region": "住宅地",
                "MunicipalityCode": "34101",
                "Prefecture": "広島県",
                "Municipality": "広島市中区",
                "DistrictName": "舟入南",
                "TradePrice": "25000000",
                "PricePerUnit": "910000",
                "FloorPlan": "",
                "Area": "90",
                "UnitPrice": "270000",
                "LandShape": "ほぼ台形",
                "Frontage": "7",
                "TotalFloorArea": "",
                "BuildingYear": "",
                "Structure": "",
                "Use": "",
                "Purpose": "住宅",
                "Direction": "南東",
                "Classification": "市道",
                "Breadth": "6.5",
                "CityPlanning": "工業地域",
                "CoverageRatio": "60",
                "FloorAreaRatio": "200",
                "Period": "2025年第2四半期",
                "Renovation": "",
                "Remarks": "",
                "DistrictCode": "341010630",
                "lat": "34.378378",
                "lon": "132.441318"
            }
        },
        {
            "type": "Feature",
            "geometry": {
                "type": "Point",
                "coordinates": [
                    132.441318,
                    34.378378
                ]
            },
            "properties": {
                "PriceCategory": "不動産取引価格情報",
                "Type": "宅地(土地と建物)",
                "Region": "住宅地",
                "MunicipalityCode": "34101",
                "Prefecture": "広島県",
                "Municipality": "広島市中区",
                "DistrictName": "舟入南",
                "TradePrice": "17000000",
                "PricePerUnit": "",
                "FloorPlan": "",
                "Area": "70",
                "UnitPrice": "",
                "LandShape": "長方形",
                "Frontage": "6.3",
                "TotalFloorArea": "70",
                "BuildingYear": "1979年",
                "Structure": "木造",
                "Use": "住宅",
                "Purpose": "",
                "Direction": "南西",
                "Classification": "市道",
                "Breadth": "4",
                "CityPlanning": "工業地域",
                "CoverageRatio": "60",
                "FloorAreaRatio": "200",
                "Period": "2025年第2四半期",
                "Renovation": "",
                "Remarks": "",
                "DistrictCode": "341010630",
                "lat": "34.378378",
                "lon": "132.441318"
            }
        },
        {
            "type": "Feature",
            "geometry": {
                "type": "Point",
                "coordinates": [
                    132.441318,
                    34.378378
                ]
            },
            "properties": {
                "PriceCategory": "不動産取引価格情報",
                "Type": "宅地(土地)",
                "Region": "住宅地",
                "MunicipalityCode": "34101",
                "Prefecture": "広島県",
                "Municipality": "広島市中区",
                "DistrictName": "舟入南",
                "TradePrice": "460000000",
                "PricePerUnit": "950000",
                "FloorPlan": "",
                "Area": "1600",
                "UnitPrice": "290000",
                "LandShape": "ほぼ整形",
                "Frontage": "30",
                "TotalFloorArea": "",
                "BuildingYear": "",
                "Structure": "",
                "Use": "",
                "Purpose": "事務所",
                "Direction": "西",
                "Classification": "市道",
                "Breadth": "3.9",
                "CityPlanning": "工業地域",
                "CoverageRatio": "60",
                "FloorAreaRatio": "200",
                "Period": "2025年第2四半期",
                "Renovation": "",
                "Remarks": "",
                "DistrictCode": "341010630",
                "lat": "34.378378",
                "lon": "132.441318"
            }
        },
        {
            "type": "Feature",
            "geometry": {
                "type": "Point",
                "coordinates": [
                    132.441318,
                    34.378378
                ]
            },
            "properties": {
                "PriceCategory": "不動産取引価格情報",
                "Type": "中古マンション等",
                "Region": "",
                "MunicipalityCode": "34101",
                "Prefecture": "広島県",
                "Municipality": "広島市中区",
                "DistrictName": "舟入南",
                "TradePrice": "14000000",
                "PricePerUnit": "",
                "FloorPlan": "３ＬＤＫ",
                "Area": "65",
                "UnitPrice": "",
                "LandShape": "",
                "Frontage": "",
                "TotalFloorArea": "",
                "BuildingYear": "1974年",
                "Structure": "ＳＲＣ",
                "Use": "住宅",
                "Purpose": "住宅",
                "Direction": "",
                "Classification": "",
                "Breadth": "",
                "CityPlanning": "近隣商業地域",
                "CoverageRatio": "80",
                "FloorAreaRatio": "300",
                "Period": "2025年第2四半期",
                "Renovation": "未改装",
                "Remarks": "",
                "DistrictCode": "341010630",
                "lat": "34.378378",
                "lon": "132.441318"
            }
        },
        {
            "type": "Feature",
            "geometry": {
                "type": "Point",
                "coordinates": [
                    132.441318,
                    34.378378
                ]
            },
            "properties": {
                "PriceCategory": "不動産取引価格情報",
                "Type": "中古マンション等",
                "Region": "",
                "MunicipalityCode": "34101",
                "Prefecture": "広島県",
                "Municipality": "広島市中区",
                "DistrictName": "舟入南",
                "TradePrice": "43000000",
                "PricePerUnit": "",
                "FloorPlan": "３ＬＤＫ",
                "Area": "70",
                "UnitPrice": "",
                "LandShape": "",
                "Frontage": "",
                "TotalFloorArea": "",
                "BuildingYear": "2019年",
                "Structure": "ＲＣ",
                "Use": "住宅",
                "Purpose": "住宅",
                "Direction": "",
                "Classification": "",
                "Breadth": "",
                "CityPlanning": "第２種住居地域",
                "CoverageRatio": "60",
                "FloorAreaRatio": "200",
                "Period": "2025年第2四半期",
                "Renovation": "未改装",
                "Remarks": "",
                "DistrictCode": "341010630",
                "lat": "34.378378",
                "lon": "132.441318"
            }
        },
        {
            "type": "Feature",
            "geometry": {
                "type": "Point",
                "coordinates": [
                    132.450433,
                    34.39579
                ]
            },
            "properties": {
                "PriceCategory": "不動産取引価格情報",
                "Type": "宅地(土地と建物)",
                "Region": "商業地",
                "MunicipalityCode": "34101",
                "Prefecture": "広島県",
                "Municipality": "広島市中区",
                "DistrictName": "本川町",
                "TradePrice": "1300000000",
                "PricePerUnit": "",
                "FloorPlan": "",
                "Area": "510",
                "UnitPrice": "",
                "LandShape": "不整形",
                "Frontage": "34.5",
                "TotalFloorArea": "9999",
                "BuildingYear": "2024年",
                "Structure": "ＲＣ",
                "Use": "共同住宅",
                "Purpose": "その他",
                "Direction": "南西",
                "Classification": "市道",
                "Breadth": "6",
                "CityPlanning": "商業地域",
                "CoverageRatio": "80",
                "FloorAreaRatio": "400",
                "Period": "2025年第2四半期",
                "Renovation": "",
                "Remarks": "",
                "DistrictCode": "341010650",
                "lat": "34.39579",
                "lon": "132.450433"
            }
        },
        {
            "type": "Feature",
            "geometry": {
                "type": "Point",
                "coordinates": [
                    132.450433,
                    34.39579
                ]
            },
            "properties": {
                "PriceCategory": "不動産取引価格情報",
                "Type": "宅地(土地と建物)",
                "Region": "商業地",
                "MunicipalityCode": "34101",
                "Prefecture": "広島県",
                "Municipality": "広島市中区",
                "DistrictName": "本川町",
                "TradePrice": "320000000",
                "PricePerUnit": "",
                "FloorPlan": "",
                "Area": "145",
                "UnitPrice": "",
                "LandShape": "長方形",
                "Frontage": "7.1",
                "TotalFloorArea": "670",
                "BuildingYear": "1993年",
                "Structure": "ＲＣ",
                "Use": "共同住宅、事務所、店舗",
                "Purpose": "店舗",
                "Direction": "北西",
                "Classification": "市道",
                "Breadth": "8",
                "CityPlanning": "商業地域",
                "CoverageRatio": "80",
                "FloorAreaRatio": "600",
                "Period": "2025年第2四半期",
                "Renovation": "",
                "Remarks": "",
                "DistrictCode": "341010650",
                "lat": "34.39579",
                "lon": "132.450433"
            }
        },
        {
            "type": "Feature",
            "geometry": {
                "type": "Point",
                "coordinates": [
                    132.433139,
                    34.37246
                ]
            },
            "properties": {
                "PriceCategory": "不動産取引価格情報",
                "Type": "宅地(土地と建物)",
                "Region": "住宅地",
                "MunicipalityCode": "34101",
                "Prefecture": "広島県",
                "Municipality": "広島市中区",
                "DistrictName": "江波西",
                "TradePrice": "110000000",
                "PricePerUnit": "",
                "FloorPlan": "",
                "Area": "320",
                "UnitPrice": "",
                "LandShape": "長方形",
                "Frontage": "19.7",
                "TotalFloorArea": "410",
                "BuildingYear": "1994年",
                "Structure": "ＲＣ",
                "Use": "共同住宅",
                "Purpose": "",
                "Direction": "南西",
                "Classification": "市道",
                "Breadth": "3.9",
                "CityPlanning": "第１種住居地域",
                "CoverageRatio": "60",
                "FloorAreaRatio": "200",
                "Period": "2025年第2四半期",
                "Renovation": "",
                "Remarks": "",
                "DistrictCode": "341010040",
                "lat": "34.37246",
                "lon": "132.433139"
            }
        },
        {
            "type": "Feature",
            "geometry": {
                "type": "Point",
                "coordinates": [
                    132.433139,
                    34.37246
                ]
            },
            "properties": {
                "PriceCategory": "不動産取引価格情報",
                "Type": "宅地(土地)",
                "Region": "住宅地",
                "MunicipalityCode": "34101",
                "Prefecture": "広島県",
                "Municipality": "広島市中区",
                "DistrictName": "江波西",
                "TradePrice": "22000000",
                "PricePerUnit": "550000",
                "FloorPlan": "",
                "Area": "130",
                "UnitPrice": "170000",
                "LandShape": "台形",
                "Frontage": "8.7",
                "TotalFloorArea": "",
                "BuildingYear": "",
                "Structure": "",
                "Use": "",
                "Purpose": "その他",
                "Direction": "東",
                "Classification": "市道",
                "Breadth": "9.2",
                "CityPlanning": "第１種住居地域",
                "CoverageRatio": "60",
                "FloorAreaRatio": "200",
                "Period": "2025年第2四半期",
                "Renovation": "",
                "Remarks": "",
                "DistrictCode": "341010040",
                "lat": "34.37246",
                "lon": "132.433139"
            }
        },
        {
            "type": "Feature",
            "geometry": {
                "type": "Point",
                "coordinates": [
                    132.437227,
                    34.366267
                ]
            },
            "properties": {
                "PriceCategory": "不動産取引価格情報",
                "Type": "宅地(土地と建物)",
                "Region": "住宅地",
                "MunicipalityCode": "34101",
                "Prefecture": "広島県",
                "Municipality": "広島市中区",
                "DistrictName": "江波南",
                "TradePrice": "31000000",
                "PricePerUnit": "",
                "FloorPlan": "",
                "Area": "100",
                "UnitPrice": "",
                "LandShape": "長方形",
                "Frontage": "8.3",
                "TotalFloorArea": "100",
                "BuildingYear": "2010年",
                "Structure": "木造",
                "Use": "住宅",
                "Purpose": "住宅",
                "Direction": "南東",
                "Classification": "市道",
                "Breadth": "6",
                "CityPlanning": "第１種住居地域",
                "CoverageRatio": "60",
                "FloorAreaRatio": "200",
                "Period": "2025年第2四半期",
                "Renovation": "",
                "Remarks": "",
                "DistrictCode": "341010080",
                "lat": "34.366267",
                "lon": "132.437227"
            }
        },
        {
            "type": "Feature",
            "geometry": {
                "type": "Point",
                "coordinates": [
                    132.437227,
                    34.366267
                ]
            },
            "properties": {
                "PriceCategory": "不動産取引価格情報",
                "Type": "宅地(土地と建物)",
                "Region": "住宅地",
                "MunicipalityCode": "34101",
                "Prefecture": "広島県",
                "Municipality": "広島市中区",
                "DistrictName": "江波南",
                "TradePrice": "78000000",
                "PricePerUnit": "",
                "FloorPlan": "",
                "Area": "240",
                "UnitPrice": "",
                "LandShape": "長方形",
                "Frontage": "20.3",
                "TotalFloorArea": "380",
                "BuildingYear": "2017年",
                "Structure": "軽量鉄骨造",
                "Use": "事務所",
                "Purpose": "事務所",
                "Direction": "南西",
                "Classification": "市道",
                "Breadth": "6",
                "CityPlanning": "第１種住居地域",
                "CoverageRatio": "60",
                "FloorAreaRatio": "200",
                "Period": "2025年第2四半期",
                "Renovation": "",
                "Remarks": "",
                "DistrictCode": "341010080",
                "lat": "34.366267",
                "lon": "132.437227"
            }
        },
        {
            "type": "Feature",
            "geometry": {
                "type": "Point",
                "coordinates": [
                    132.454684,
                    34.394917
                ]
            },
            "properties": {
                "PriceCategory": "不動産取引価格情報",
                "Type": "宅地(土地)",
                "Region": "商業地",
                "MunicipalityCode": "34101",
                "Prefecture": "広島県",
                "Municipality": "広島市中区",
                "DistrictName": "大手町",
                "TradePrice": "140000000",
                "PricePerUnit": "2700000",
                "FloorPlan": "",
                "Area": "175",
                "UnitPrice": "810000",
                "LandShape": "ほぼ長方形",
                "Frontage": "7.6",
                "TotalFloorArea": "",
                "BuildingYear": "",
                "Structure": "",
                "Use": "",
                "Purpose": "その他",
                "Direction": "南西",
                "Classification": "市道",
                "Breadth": "6",
                "CityPlanning": "商業地域",
                "CoverageRatio": "80",
                "FloorAreaRatio": "400",
                "Period": "2025年第2四半期",
                "Renovation": "",
                "Remarks": "",
                "DistrictCode": "341010100",
                "lat": "34.394917",
                "lon": "132.454684"
            }
        },
        {
            "type": "Feature",
            "geometry": {
                "type": "Point",
                "coordinates": [
                    132.454684,
                    34.394917
                ]
            },
            "properties": {
                "PriceCategory": "不動産取引価格情報",
                "Type": "宅地(土地)",
                "Region": "商業地",
                "MunicipalityCode": "34101",
                "Prefecture": "広島県",
                "Municipality": "広島市中区",
                "DistrictName": "大手町",
                "TradePrice": "110000000",
                "PricePerUnit": "2300000",
                "FloorPlan": "",
                "Area": "155",
                "UnitPrice": "700000",
                "LandShape": "不整形",
                "Frontage": "5.5",
                "TotalFloorArea": "",
                "BuildingYear": "",
                "Structure": "",
                "Use": "",
                "Purpose": "その他",
                "Direction": "南西",
                "Classification": "市道",
                "Breadth": "8",
                "CityPlanning": "商業地域",
                "CoverageRatio": "80",
                "FloorAreaRatio": "400",
                "Period": "2025年第2四半期",
                "Renovation": "",
                "Remarks": "",
                "DistrictCode": "341010100",
                "lat": "34.394917",
                "lon": "132.454684"
            }
        },
        {
            "type": "Feature",
            "geometry": {
                "type": "Point",
                "coordinates": [
                    132.454684,
                    34.394917
                ]
            },
            "properties": {
                "PriceCategory": "不動産取引価格情報",
                "Type": "中古マンション等",
                "Region": "",
                "MunicipalityCode": "34101",
                "Prefecture": "広島県",
                "Municipality": "広島市中区",
                "DistrictName": "大手町",
                "TradePrice": "5700000",
                "PricePerUnit": "",
                "FloorPlan": "１Ｋ",
                "Area": "15",
                "UnitPrice": "",
                "LandShape": "",
                "Frontage": "",
                "TotalFloorArea": "",
                "BuildingYear": "1990年",
                "Structure": "ＳＲＣ",
                "Use": "住宅",
                "Purpose": "その他",
                "Direction": "",
                "Classification": "",
                "Breadth": "",
                "CityPlanning": "近隣商業地域",
                "CoverageRatio": "80",
                "FloorAreaRatio": "400",
                "Period": "2025年第2四半期",
                "Renovation": "未改装",
                "Remarks": "",
                "DistrictCode": "341010100",
                "lat": "34.394917",
                "lon": "132.454684"
            }
        },
        {
            "type": "Feature",
            "geometry": {
                "type": "Point",
                "coordinates": [
                    132.448274,
                    34.394182
                ]
            },
            "properties": {
                "PriceCategory": "不動産取引価格情報",
                "Type": "宅地(土地と建物)",
                "Region": "商業地",
                "MunicipalityCode": "34101",
                "Prefecture": "広島県",
                "Municipality": "広島市中区",
                "DistrictName": "堺町",
                "TradePrice": "70000000",
                "PricePerUnit": "",
                "FloorPlan": "",
                "Area": "95",
                "UnitPrice": "",
                "LandShape": "長方形",
                "Frontage": "5.4",
                "TotalFloorArea": "75",
                "BuildingYear": "",
                "Structure": "木造",
                "Use": "店舗",
                "Purpose": "その他",
                "Direction": "南東",
                "Classification": "市道",
                "Breadth": "10",
                "CityPlanning": "商業地域",
                "CoverageRatio": "80",
                "FloorAreaRatio": "400",
                "Period": "2025年第2四半期",
                "Renovation": "",
                "Remarks": "",
                "DistrictCode": "341010210",
                "lat": "34.394182",
                "lon": "132.448274"
            }
        },
        {
            "type": "Feature",
            "geometry": {
                "type": "Point",
                "coordinates": [
                    132.454451,
                    34.381648
                ]
            },
            "properties": {
                "PriceCategory": "不動産取引価格情報",
                "Type": "宅地(土地と建物)",
                "Region": "商業地",
                "MunicipalityCode": "34101",
                "Prefecture": "広島県",
                "Municipality": "広島市中区",
                "DistrictName": "千田町",
                "TradePrice": "80000000",
                "PricePerUnit": "",
                "FloorPlan": "",
                "Area": "145",
                "UnitPrice": "",
                "LandShape": "不整形",
                "Frontage": "5",
                "TotalFloorArea": "430",
                "BuildingYear": "1984年",
                "Structure": "ＲＣ",
                "Use": "住宅、事務所、倉庫、店舗",
                "Purpose": "その他",
                "Direction": "北東",
                "Classification": "県道",
                "Breadth": "36.2",
                "CityPlanning": "近隣商業地域",
                "CoverageRatio": "80",
                "FloorAreaRatio": "300",
                "Period": "2025年第2四半期",
                "Renovation": "",
                "Remarks": "",
                "DistrictCode": "341010250",
                "lat": "34.381648",
                "lon": "132.454451"
            }
        },
        {
            "type": "Feature",
            "geometry": {
                "type": "Point",
                "coordinates": [
                    132.454451,
                    34.381648
                ]
            },
            "properties": {
                "PriceCategory": "不動産取引価格情報",
                "Type": "宅地(土地と建物)",
                "Region": "商業地",
                "MunicipalityCode": "34101",
                "Prefecture": "広島県",
                "Municipality": "広島市中区",
                "DistrictName": "千田町",
                "TradePrice": "130000000",
                "PricePerUnit": "",
                "FloorPlan": "",
                "Area": "240",
                "UnitPrice": "",
                "LandShape": "長方形",
                "Frontage": "10.7",
                "TotalFloorArea": "500",
                "BuildingYear": "1963年",
                "Structure": "ＲＣ",
                "Use": "住宅、工場",
                "Purpose": "倉庫",
                "Direction": "南西",
                "Classification": "市道",
                "Breadth": "15.2",
                "CityPlanning": "第２種住居地域",
                "CoverageRatio": "60",
                "FloorAreaRatio": "300",
                "Period": "2025年第2四半期",
                "Renovation": "",
                "Remarks": "",
                "DistrictCode": "341010250",
                "lat": "34.381648",
                "lon": "132.454451"
            }
        },
        {
            "type": "Feature",
            "geometry": {
                "type": "Point",
                "coordinates": [
                    132.448097,
                    34.396893
                ]
            },
            "properties": {
                "PriceCategory": "不動産取引価格情報",
                "Type": "宅地(土地と建物)",
                "Region": "商業地",
                "MunicipalityCode": "34101",
                "Prefecture": "広島県",
                "Municipality": "広島市中区",
                "DistrictName": "十日市町",
                "TradePrice": "69000000",
                "PricePerUnit": "",
                "FloorPlan": "",
                "Area": "90",
                "UnitPrice": "",
                "LandShape": "ほぼ長方形",
                "Frontage": "",
                "TotalFloorArea": "180",
                "BuildingYear": "1994年",
                "Structure": "ＲＣ",
                "Use": "共同住宅、作業場",
                "Purpose": "住宅",
                "Direction": "南",
                "Classification": "市道",
                "Breadth": "8",
                "CityPlanning": "商業地域",
                "CoverageRatio": "80",
                "FloorAreaRatio": "600",
                "Period": "2025年第2四半期",
                "Renovation": "",
                "Remarks": "",
                "DistrictCode": "341010330",
                "lat": "34.396893",
                "lon": "132.448097"
            }
        },
        {
            "type": "Feature",
            "geometry": {
                "type": "Point",
                "coordinates": [
                    132.448097,
                    34.396893
                ]
            },
            "properties": {
                "PriceCategory": "不動産取引価格情報",
                "Type": "宅地(土地と建物)",
                "Region": "商業地",
                "MunicipalityCode": "34101",
                "Prefecture": "広島県",
                "Municipality": "広島市中区",
                "DistrictName": "十日市町",
                "TradePrice": "190000000",
                "PricePerUnit": "",
                "FloorPlan": "",
                "Area": "135",
                "UnitPrice": "",
                "LandShape": "ほぼ長方形",
                "Frontage": "6.5",
                "TotalFloorArea": "610",
                "BuildingYear": "2010年",
                "Structure": "ＲＣ",
                "Use": "共同住宅、事務所、駐車場",
                "Purpose": "住宅",
                "Direction": "南西",
                "Classification": "市道",
                "Breadth": "8",
                "CityPlanning": "商業地域",
                "CoverageRatio": "80",
                "FloorAreaRatio": "400",
                "Period": "2025年第2四半期",
                "Renovation": "",
                "Remarks": "",
                "DistrictCode": "341010330",
                "lat": "34.396893",
                "lon": "132.448097"
            }
        },
        {
            "type": "Feature",
            "geometry": {
                "type": "Point",
                "coordinates": [
                    132.438313,
                    34.382201
                ]
            },
            "properties": {
                "PriceCategory": "不動産取引価格情報",
                "Type": "宅地(土地)",
                "Region": "住宅地",
                "MunicipalityCode": "34101",
                "Prefecture": "広島県",
                "Municipality": "広島市中区",
                "DistrictName": "西川口町",
                "TradePrice": "86000000",
                "PricePerUnit": "1000000",
                "FloorPlan": "",
                "Area": "280",
                "UnitPrice": "310000",
                "LandShape": "長方形",
                "Frontage": "13",
                "TotalFloorArea": "",
                "BuildingYear": "",
                "Structure": "",
                "Use": "",
                "Purpose": "その他",
                "Direction": "南西",
                "Classification": "市道",
                "Breadth": "7",
                "CityPlanning": "第２種住居地域",
                "CoverageRatio": "60",
                "FloorAreaRatio": "200",
                "Period": "2025年第2四半期",
                "Renovation": "",
                "Remarks": "",
                "DistrictCode": "341010380",
                "lat": "34.382201",
                "lon": "132.438313"
            }
        },
        {
            "type": "Feature",
            "geometry": {
                "type": "Point",
                "coordinates": [
                    132.45027,
                    34.379425
                ]
            },
            "properties": {
                "PriceCategory": "不動産取引価格情報",
                "Type": "宅地(土地と建物)",
                "Region": "住宅地",
                "MunicipalityCode": "34101",
                "Prefecture": "広島県",
                "Municipality": "広島市中区",
                "DistrictName": "羽衣町",
                "TradePrice": "75000000",
                "PricePerUnit": "",
                "FloorPlan": "",
                "Area": "110",
                "UnitPrice": "",
                "LandShape": "ほぼ長方形",
                "Frontage": "8",
                "TotalFloorArea": "300",
                "BuildingYear": "1989年",
                "Structure": "ＲＣ",
                "Use": "共同住宅",
                "Purpose": "住宅",
                "Direction": "南西",
                "Classification": "市道",
                "Breadth": "4",
                "CityPlanning": "近隣商業地域",
                "CoverageRatio": "80",
                "FloorAreaRatio": "300",
                "Period": "2025年第2四半期",
                "Renovation": "",
                "Remarks": "",
                "DistrictCode": "341010470",
                "lat": "34.379425",
                "lon": "132.45027"
            }
        },
        {
            "type": "Feature",
            "geometry": {
                "type": "Point",
                "coordinates": [
                    132.443498,
                    34.387172
                ]
            },
            "properties": {
                "PriceCategory": "不動産取引価格情報",
                "Type": "中古マンション等",
                "Region": "",
                "MunicipalityCode": "34101",
                "Prefecture": "広島県",
                "Municipality": "広島市中区",
                "DistrictName": "舟入中町",
                "TradePrice": "19000000",
                "PricePerUnit": "",
                "FloorPlan": "３ＬＤＫ",
                "Area": "65",
                "UnitPrice": "",
                "LandShape": "",
                "Frontage": "",
                "TotalFloorArea": "",
                "BuildingYear": "1990年",
                "Structure": "ＲＣ",
                "Use": "住宅",
                "Purpose": "住宅",
                "Direction": "",
                "Classification": "",
                "Breadth": "",
                "CityPlanning": "商業地域",
                "CoverageRatio": "80",
                "FloorAreaRatio": "500",
                "Period": "2025年第2四半期",
                "Renovation": "未改装",
                "Remarks": "",
                "DistrictCode": "341010600",
                "lat": "34.387172",
                "lon": "132.443498"
            }
        },
        {
            "type": "Feature",
            "geometry": {
                "type": "Point",
                "coordinates": [
                    132.451023,
                    34.374142
                ]
            },
            "properties": {
                "PriceCategory": "不動産取引価格情報",
                "Type": "宅地(土地と建物)",
                "Region": "商業地",
                "MunicipalityCode": "34101",
                "Prefecture": "広島県",
                "Municipality": "広島市中区",
                "DistrictName": "吉島東",
                "TradePrice": "70000000",
                "PricePerUnit": "",
                "FloorPlan": "",
                "Area": "290",
                "UnitPrice": "",
                "LandShape": "ほぼ長方形",
                "Frontage": "12.5",
                "TotalFloorArea": "790",
                "BuildingYear": "1974年",
                "Structure": "ＲＣ",
                "Use": "住宅、その他",
                "Purpose": "その他",
                "Direction": "西",
                "Classification": "市道",
                "Breadth": "25",
                "CityPlanning": "近隣商業地域",
                "CoverageRatio": "80",
                "FloorAreaRatio": "300",
                "Period": "2025年第2四半期",
                "Renovation": "",
                "Remarks": "",
                "DistrictCode": "341010780",
                "lat": "34.374142",
                "lon": "132.451023"
            }
        },
        {
            "type": "Feature",
            "geometry": {
                "type": "Point",
                "coordinates": [
                    132.447803,
                    34.367916
                ]
            },
            "properties": {
                "PriceCategory": "不動産取引価格情報",
                "Type": "宅地(土地)",
                "Region": "住宅地",
                "MunicipalityCode": "34101",
                "Prefecture": "広島県",
                "Municipality": "広島市中区",
                "DistrictName": "光南",
                "TradePrice": "35000000",
                "PricePerUnit": "730000",
                "FloorPlan": "",
                "Area": "160",
                "UnitPrice": "220000",
                "LandShape": "長方形",
                "Frontage": "7",
                "TotalFloorArea": "",
                "BuildingYear": "",
                "Structure": "",
                "Use": "",
                "Purpose": "",
                "Direction": "南東",
                "Classification": "市道",
                "Breadth": "4",
                "CityPlanning": "第１種住居地域",
                "CoverageRatio": "60",
                "FloorAreaRatio": "200",
                "Period": "2025年第2四半期",
                "Renovation": "",
                "Remarks": "",
                "DistrictCode": "341010180",
                "lat": "34.367916",
                "lon": "132.447803"
            }
        },
        {
            "type": "Feature",
            "geometry": {
                "type": "Point",
                "coordinates": [
                    132.447803,
                    34.367916
                ]
            },
            "properties": {
                "PriceCategory": "不動産取引価格情報",
                "Type": "中古マンション等",
                "Region": "",
                "MunicipalityCode": "34101",
                "Prefecture": "広島県",
                "Municipality": "広島市中区",
                "DistrictName": "光南",
                "TradePrice": "30000000",
                "PricePerUnit": "",
                "FloorPlan": "３ＬＤＫ",
                "Area": "65",
                "UnitPrice": "",
                "LandShape": "",
                "Frontage": "",
                "TotalFloorArea": "",
                "BuildingYear": "1994年",
                "Structure": "ＳＲＣ",
                "Use": "住宅",
                "Purpose": "住宅",
                "Direction": "",
                "Classification": "",
                "Breadth": "",
                "CityPlanning": "近隣商業地域",
                "CoverageRatio": "80",
                "FloorAreaRatio": "200",
                "Period": "2025年第2四半期",
                "Renovation": "改装済み",
                "Remarks": "",
                "DistrictCode": "341010180",
                "lat": "34.367916",
                "lon": "132.447803"
            }
        },
        {
            "type": "Feature",
            "geometry": {
                "type": "Point",
                "coordinates": [
                    132.441287,
                    34.384009
                ]
            },
            "properties": {
                "PriceCategory": "不動産取引価格情報",
                "Type": "宅地(土地)",
                "Region": "住宅地",
                "MunicipalityCode": "34101",
                "Prefecture": "広島県",
                "Municipality": "広島市中区",
                "DistrictName": "舟入幸町",
                "TradePrice": "30000000",
                "PricePerUnit": "980000",
                "FloorPlan": "",
                "Area": "100",
                "UnitPrice": "300000",
                "LandShape": "長方形",
                "Frontage": "7",
                "TotalFloorArea": "",
                "BuildingYear": "",
                "Structure": "",
                "Use": "",
                "Purpose": "住宅",
                "Direction": "北東",
                "Classification": "市道",
                "Breadth": "8",
                "CityPlanning": "第２種住居地域",
                "CoverageRatio": "60",
                "FloorAreaRatio": "200",
                "Period": "2025年第2四半期",
                "Renovation": "",
                "Remarks": "",
                "DistrictCode": "341010590",
                "lat": "34.384009",
                "lon": "132.441287"
            }
        },
        {
            "type": "Feature",
            "geometry": {
                "type": "Point",
                "coordinates": [
                    132.441287,
                    34.384009
                ]
            },
            "properties": {
                "PriceCategory": "不動産取引価格情報",
                "Type": "宅地(土地)",
                "Region": "住宅地",
                "MunicipalityCode": "34101",
                "Prefecture": "広島県",
                "Municipality": "広島市中区",
                "DistrictName": "舟入幸町",
                "TradePrice": "78000000",
                "PricePerUnit": "1200000",
                "FloorPlan": "",
                "Area": "220",
                "UnitPrice": "360000",
                "LandShape": "ほぼ台形",
                "Frontage": "12.4",
                "TotalFloorArea": "",
                "BuildingYear": "",
                "Structure": "",
                "Use": "",
                "Purpose": "その他",
                "Direction": "北西",
                "Classification": "市道",
                "Breadth": "10",
                "CityPlanning": "第２種住居地域",
                "CoverageRatio": "60",
                "FloorAreaRatio": "300",
                "Period": "2025年第2四半期",
                "Renovation": "",
                "Remarks": "",
                "DistrictCode": "341010590",
                "lat": "34.384009",
                "lon": "132.441287"
            }
        },
        {
            "type": "Feature",
            "geometry": {
                "type": "Point",
                "coordinates": [
                    132.441287,
                    34.384009
                ]
            },
            "properties": {
                "PriceCategory": "不動産取引価格情報",
                "Type": "宅地(土地)",
                "Region": "住宅地",
                "MunicipalityCode": "34101",
                "Prefecture": "広島県",
                "Municipality": "広島市中区",
                "DistrictName": "舟入幸町",
                "TradePrice": "50000000",
                "PricePerUnit": "1000000",
                "FloorPlan": "",
                "Area": "165",
                "UnitPrice": "300000",
                "LandShape": "長方形",
                "Frontage": "11.4",
                "TotalFloorArea": "",
                "BuildingYear": "",
                "Structure": "",
                "Use": "",
                "Purpose": "住宅",
                "Direction": "北西",
                "Classification": "市道",
                "Breadth": "10",
                "CityPlanning": "第２種住居地域",
                "CoverageRatio": "60",
                "FloorAreaRatio": "300",
                "Period": "2025年第2四半期",
                "Renovation": "",
                "Remarks": "",
                "DistrictCode": "341010590",
                "lat": "34.384009",
                "lon": "132.441287"
            }
        },
        {
            "type": "Feature",
            "geometry": {
                "type": "Point",
                "coordinates": [
                    132.427724,
                    34.365532
                ]
            },
            "properties": {
                "PriceCategory": "不動産取引価格情報",
                "Type": "宅地(土地と建物)",
                "Region": "住宅地",
                "MunicipalityCode": "34101",
                "Prefecture": "広島県",
                "Municipality": "広島市中区",
                "DistrictName": "江波栄町",
                "TradePrice": "13000000",
                "PricePerUnit": "",
                "FloorPlan": "",
                "Area": "165",
                "UnitPrice": "",
                "LandShape": "長方形",
                "Frontage": "7.3",
                "TotalFloorArea": "45",
                "BuildingYear": "1953年",
                "Structure": "木造",
                "Use": "住宅",
                "Purpose": "住宅",
                "Direction": "南東",
                "Classification": "市道",
                "Breadth": "5.8",
                "CityPlanning": "第１種住居地域",
                "CoverageRatio": "60",
                "FloorAreaRatio": "200",
                "Period": "2025年第2四半期",
                "Renovation": "",
                "Remarks": "",
                "DistrictCode": "341010030",
                "lat": "34.365532",
                "lon": "132.427724"
            }
        },
        {
            "type": "Feature",
            "geometry": {
                "type": "Point",
                "coordinates": [
                    132.464276,
                    34.388564
                ]
            },
            "properties": {
                "PriceCategory": "不動産取引価格情報",
                "Type": "宅地(土地)",
                "Region": "商業地",
                "MunicipalityCode": "34101",
                "Prefecture": "広島県",
                "Municipality": "広島市中区",
                "DistrictName": "田中町",
                "TradePrice": "450000000",
                "PricePerUnit": "4100000",
                "FloorPlan": "",
                "Area": "360",
                "UnitPrice": "1200000",
                "LandShape": "ほぼ長方形",
                "Frontage": "12.5",
                "TotalFloorArea": "",
                "BuildingYear": "",
                "Structure": "",
                "Use": "",
                "Purpose": "住宅",
                "Direction": "西",
                "Classification": "市道",
                "Breadth": "10",
                "CityPlanning": "商業地域",
                "CoverageRatio": "80",
                "FloorAreaRatio": "800",
                "Period": "2025年第2四半期",
                "Renovation": "",
                "Remarks": "",
                "DistrictCode": "341010290",
                "lat": "34.388564",
                "lon": "132.464276"
            }
        },
        {
            "type": "Feature",
            "geometry": {
                "type": "Point",
                "coordinates": [
                    132.463036,
                    34.396106
                ]
            },
            "properties": {
                "PriceCategory": "不動産取引価格情報",
                "Type": "中古マンション等",
                "Region": "",
                "MunicipalityCode": "34101",
                "Prefecture": "広島県",
                "Municipality": "広島市中区",
                "DistrictName": "八丁堀",
                "TradePrice": "2500000",
                "PricePerUnit": "",
                "FloorPlan": "１Ｋ",
                "Area": "20",
                "UnitPrice": "",
                "LandShape": "",
                "Frontage": "",
                "TotalFloorArea": "",
                "BuildingYear": "1979年",
                "Structure": "ＲＣ",
                "Use": "事務所",
                "Purpose": "事務所",
                "Direction": "",
                "Classification": "",
                "Breadth": "",
                "CityPlanning": "商業地域",
                "CoverageRatio": "80",
                "FloorAreaRatio": "800",
                "Period": "2025年第2四半期",
                "Renovation": "未改装",
                "Remarks": "",
                "DistrictCode": "341010490",
                "lat": "34.396106",
                "lon": "132.463036"
            }
        },
        {
            "type": "Feature",
            "geometry": {
                "type": "Point",
                "coordinates": [
                    132.463036,
                    34.396106
                ]
            },
            "properties": {
                "PriceCategory": "不動産取引価格情報",
                "Type": "中古マンション等",
                "Region": "",
                "MunicipalityCode": "34101",
                "Prefecture": "広島県",
                "Municipality": "広島市中区",
                "DistrictName": "八丁堀",
                "TradePrice": "3700000",
                "PricePerUnit": "",
                "FloorPlan": "１Ｒ",
                "Area": "20",
                "UnitPrice": "",
                "LandShape": "",
                "Frontage": "",
                "TotalFloorArea": "",
                "BuildingYear": "1979年",
                "Structure": "ＲＣ",
                "Use": "",
                "Purpose": "その他",
                "Direction": "",
                "Classification": "",
                "Breadth": "",
                "CityPlanning": "商業地域",
                "CoverageRatio": "80",
                "FloorAreaRatio": "800",
                "Period": "2025年第2四半期",
                "Renovation": "未改装",
                "Remarks": "",
                "DistrictCode": "341010490",
                "lat": "34.396106",
                "lon": "132.463036"
            }
        },
        {
            "type": "Feature",
            "geometry": {
                "type": "Point",
                "coordinates": [
                    132.463036,
                    34.396106
                ]
            },
            "properties": {
                "PriceCategory": "不動産取引価格情報",
                "Type": "中古マンション等",
                "Region": "",
                "MunicipalityCode": "34101",
                "Prefecture": "広島県",
                "Municipality": "広島市中区",
                "DistrictName": "八丁堀",
                "TradePrice": "3500000",
                "PricePerUnit": "",
                "FloorPlan": "１Ｋ",
                "Area": "20",
                "UnitPrice": "",
                "LandShape": "",
                "Frontage": "",
                "TotalFloorArea": "",
                "BuildingYear": "1979年",
                "Structure": "ＲＣ",
                "Use": "住宅",
                "Purpose": "事務所",
                "Direction": "",
                "Classification": "",
                "Breadth": "",
                "CityPlanning": "商業地域",
                "CoverageRatio": "80",
                "FloorAreaRatio": "800",
                "Period": "2025年第2四半期",
                "Renovation": "未改装",
                "Remarks": "",
                "DistrictCode": "341010490",
                "lat": "34.396106",
                "lon": "132.463036"
            }
        },
        {
            "type": "Feature",
            "geometry": {
                "type": "Point",
                "coordinates": [
                    132.468319,
                    34.388178
                ]
            },
            "properties": {
                "PriceCategory": "不動産取引価格情報",
                "Type": "中古マンション等",
                "Region": "",
                "MunicipalityCode": "34101",
                "Prefecture": "広島県",
                "Municipality": "広島市中区",
                "DistrictName": "東平塚町",
                "TradePrice": "24000000",
                "PricePerUnit": "",
                "FloorPlan": "１ＬＤＫ",
                "Area": "25",
                "UnitPrice": "",
                "LandShape": "",
                "Frontage": "",
                "TotalFloorArea": "",
                "BuildingYear": "",
                "Structure": "ＲＣ",
                "Use": "住宅",
                "Purpose": "その他",
                "Direction": "",
                "Classification": "",
                "Breadth": "",
                "CityPlanning": "商業地域",
                "CoverageRatio": "80",
                "FloorAreaRatio": "400",
                "Period": "2025年第2四半期",
                "Renovation": "未改装",
                "Remarks": "",
                "DistrictCode": "341010520",
                "lat": "34.388178",
                "lon": "132.468319"
            }
        },
        {
            "type": "Feature",
            "geometry": {
                "type": "Point",
                "coordinates": [
                    132.468319,
                    34.388178
                ]
            },
            "properties": {
                "PriceCategory": "不動産取引価格情報",
                "Type": "中古マンション等",
                "Region": "",
                "MunicipalityCode": "34101",
                "Prefecture": "広島県",
                "Municipality": "広島市中区",
                "DistrictName": "東平塚町",
                "TradePrice": "24000000",
                "PricePerUnit": "",
                "FloorPlan": "１ＬＤＫ",
                "Area": "25",
                "UnitPrice": "",
                "LandShape": "",
                "Frontage": "",
                "TotalFloorArea": "",
                "BuildingYear": "",
                "Structure": "ＲＣ",
                "Use": "住宅",
                "Purpose": "その他",
                "Direction": "",
                "Classification": "",
                "Breadth": "",
                "CityPlanning": "商業地域",
                "CoverageRatio": "80",
                "FloorAreaRatio": "400",
                "Period": "2025年第2四半期",
                "Renovation": "未改装",
                "Remarks": "",
                "DistrictCode": "341010520",
                "lat": "34.388178",
                "lon": "132.468319"
            }
        },
        {
            "type": "Feature",
            "geometry": {
                "type": "Point",
                "coordinates": [
                    132.44758,
                    34.403406
                ]
            },
            "properties": {
                "PriceCategory": "不動産取引価格情報",
                "Type": "宅地(土地と建物)",
                "Region": "商業地",
                "MunicipalityCode": "34101",
                "Prefecture": "広島県",
                "Municipality": "広島市中区",
                "DistrictName": "広瀬北町",
                "TradePrice": "190000000",
                "PricePerUnit": "",
                "FloorPlan": "",
                "Area": "220",
                "UnitPrice": "",
                "LandShape": "ほぼ長方形",
                "Frontage": "10.5",
                "TotalFloorArea": "570",
                "BuildingYear": "1988年",
                "Structure": "ＲＣ",
                "Use": "共同住宅、事務所",
                "Purpose": "住宅",
                "Direction": "南西",
                "Classification": "市道",
                "Breadth": "25.1",
                "CityPlanning": "商業地域",
                "CoverageRatio": "80",
                "FloorAreaRatio": "600",
                "Period": "2025年第2四半期",
                "Renovation": "",
                "Remarks": "",
                "DistrictCode": "341010540",
                "lat": "34.403406",
                "lon": "132.44758"
            }
        },
        {
            "type": "Feature",
            "geometry": {
                "type": "Point",
                "coordinates": [
                    132.44276,
                    34.380823
                ]
            },
            "properties": {
                "PriceCategory": "不動産取引価格情報",
                "Type": "宅地(土地と建物)",
                "Region": "住宅地",
                "MunicipalityCode": "34101",
                "Prefecture": "広島県",
                "Municipality": "広島市中区",
                "DistrictName": "舟入川口町",
                "TradePrice": "30000000",
                "PricePerUnit": "",
                "FloorPlan": "",
                "Area": "135",
                "UnitPrice": "",
                "LandShape": "ほぼ長方形",
                "Frontage": "6.9",
                "TotalFloorArea": "90",
                "BuildingYear": "1960年",
                "Structure": "木造",
                "Use": "住宅",
                "Purpose": "住宅",
                "Direction": "北東",
                "Classification": "市道",
                "Breadth": "6",
                "CityPlanning": "工業地域",
                "CoverageRatio": "60",
                "FloorAreaRatio": "200",
                "Period": "2025年第2四半期",
                "Renovation": "",
                "Remarks": "",
                "DistrictCode": "341010580",
                "lat": "34.380823",
                "lon": "132.44276"
            }
        },
        {
            "type": "Feature",
            "geometry": {
                "type": "Point",
                "coordinates": [
                    132.444314,
                    34.390644
                ]
            },
            "properties": {
                "PriceCategory": "不動産取引価格情報",
                "Type": "中古マンション等",
                "Region": "",
                "MunicipalityCode": "34101",
                "Prefecture": "広島県",
                "Municipality": "広島市中区",
                "DistrictName": "舟入町",
                "TradePrice": "13000000",
                "PricePerUnit": "",
                "FloorPlan": "３ＤＫ",
                "Area": "50",
                "UnitPrice": "",
                "LandShape": "",
                "Frontage": "",
                "TotalFloorArea": "",
                "BuildingYear": "1986年",
                "Structure": "ＳＲＣ",
                "Use": "住宅",
                "Purpose": "住宅",
                "Direction": "",
                "Classification": "",
                "Breadth": "",
                "CityPlanning": "商業地域",
                "CoverageRatio": "80",
                "FloorAreaRatio": "600",
                "Period": "2025年第2四半期",
                "Renovation": "未改装",
                "Remarks": "",
                "DistrictCode": "341010620",
                "lat": "34.390644",
                "lon": "132.444314"
            }
        },
        {
            "type": "Feature",
            "geometry": {
                "type": "Point",
                "coordinates": [
                    132.444314,
                    34.390644
                ]
            },
            "properties": {
                "PriceCategory": "不動産取引価格情報",
                "Type": "中古マンション等",
                "Region": "",
                "MunicipalityCode": "34101",
                "Prefecture": "広島県",
                "Municipality": "広島市中区",
                "DistrictName": "舟入町",
                "TradePrice": "18000000",
                "PricePerUnit": "",
                "FloorPlan": "２ＬＤＫ",
                "Area": "50",
                "UnitPrice": "",
                "LandShape": "",
                "Frontage": "",
                "TotalFloorArea": "",
                "BuildingYear": "1986年",
                "Structure": "ＳＲＣ",
                "Use": "住宅",
                "Purpose": "住宅",
                "Direction": "",
                "Classification": "",
                "Breadth": "",
                "CityPlanning": "商業地域",
                "CoverageRatio": "80",
                "FloorAreaRatio": "600",
                "Period": "2025年第2四半期",
                "Renovation": "改装済み",
                "Remarks": "",
                "DistrictCode": "341010620",
                "lat": "34.390644",
                "lon": "132.444314"
            }
        },
        {
            "type": "Feature",
            "geometry": {
                "type": "Point",
                "coordinates": [
                    132.451672,
                    34.366015
                ]
            },
            "properties": {
                "PriceCategory": "不動産取引価格情報",
                "Type": "宅地(土地と建物)",
                "Region": "住宅地",
                "MunicipalityCode": "34101",
                "Prefecture": "広島県",
                "Municipality": "広島市中区",
                "DistrictName": "吉島新町",
                "TradePrice": "6000000",
                "PricePerUnit": "",
                "FloorPlan": "",
                "Area": "50",
                "UnitPrice": "",
                "LandShape": "ほぼ長方形",
                "Frontage": "5.7",
                "TotalFloorArea": "65",
                "BuildingYear": "1973年",
                "Structure": "木造",
                "Use": "住宅",
                "Purpose": "その他",
                "Direction": "西",
                "Classification": "市道",
                "Breadth": "4",
                "CityPlanning": "第１種住居地域",
                "CoverageRatio": "60",
                "FloorAreaRatio": "200",
                "Period": "2025年第2四半期",
                "Renovation": "",
                "Remarks": "",
                "DistrictCode": "341010750",
                "lat": "34.366015",
                "lon": "132.451672"
            }
        },
        {
            "type": "Feature",
            "geometry": {
                "type": "Point",
                "coordinates": [
                    132.447543,
                    34.374151
                ]
            },
            "properties": {
                "PriceCategory": "不動産取引価格情報",
                "Type": "宅地(土地と建物)",
                "Region": "商業地",
                "MunicipalityCode": "34101",
                "Prefecture": "広島県",
                "Municipality": "広島市中区",
                "DistrictName": "吉島西",
                "TradePrice": "100000000",
                "PricePerUnit": "",
                "FloorPlan": "",
                "Area": "260",
                "UnitPrice": "",
                "LandShape": "ほぼ長方形",
                "Frontage": "9.7",
                "TotalFloorArea": "440",
                "BuildingYear": "1986年",
                "Structure": "鉄骨造",
                "Use": "事務所、作業場、店舗",
                "Purpose": "店舗",
                "Direction": "東",
                "Classification": "市道",
                "Breadth": "24.9",
                "CityPlanning": "近隣商業地域",
                "CoverageRatio": "80",
                "FloorAreaRatio": "300",
                "Period": "2025年第2四半期",
                "Renovation": "",
                "Remarks": "",
                "DistrictCode": "341010770",
                "lat": "34.374151",
                "lon": "132.447543"
            }
        },
        {
            "type": "Feature",
            "geometry": {
                "type": "Point",
                "coordinates": [
                    132.447543,
                    34.374151
                ]
            },
            "properties": {
                "PriceCategory": "不動産取引価格情報",
                "Type": "宅地(土地)",
                "Region": "住宅地",
                "MunicipalityCode": "34101",
                "Prefecture": "広島県",
                "Municipality": "広島市中区",
                "DistrictName": "吉島西",
                "TradePrice": "25000000",
                "PricePerUnit": "900000",
                "FloorPlan": "",
                "Area": "90",
                "UnitPrice": "270000",
                "LandShape": "長方形",
                "Frontage": "6.5",
                "TotalFloorArea": "",
                "BuildingYear": "",
                "Structure": "",
                "Use": "",
                "Purpose": "住宅",
                "Direction": "南西",
                "Classification": "私道",
                "Breadth": "3.8",
                "CityPlanning": "第１種住居地域",
                "CoverageRatio": "60",
                "FloorAreaRatio": "200",
                "Period": "2025年第2四半期",
                "Renovation": "",
                "Remarks": "",
                "DistrictCode": "341010770",
                "lat": "34.374151",
                "lon": "132.447543"
            }
        },
        {
            "type": "Feature",
            "geometry": {
                "type": "Point",
                "coordinates": [
                    132.447543,
                    34.374151
                ]
            },
            "properties": {
                "PriceCategory": "不動産取引価格情報",
                "Type": "宅地(土地と建物)",
                "Region": "住宅地",
                "MunicipalityCode": "34101",
                "Prefecture": "広島県",
                "Municipality": "広島市中区",
                "DistrictName": "吉島西",
                "TradePrice": "50000000",
                "PricePerUnit": "",
                "FloorPlan": "",
                "Area": "150",
                "UnitPrice": "",
                "LandShape": "ほぼ長方形",
                "Frontage": "8",
                "TotalFloorArea": "350",
                "BuildingYear": "1979年",
                "Structure": "ＲＣ",
                "Use": "共同住宅、駐車場",
                "Purpose": "住宅",
                "Direction": "南東",
                "Classification": "市道",
                "Breadth": "15.3",
                "CityPlanning": "準工業地域",
                "CoverageRatio": "60",
                "FloorAreaRatio": "200",
                "Period": "2025年第2四半期",
                "Renovation": "",
                "Remarks": "",
                "DistrictCode": "341010770",
                "lat": "34.374151",
                "lon": "132.447543"
            }
        },
        {
            "type": "Feature",
            "geometry": {
                "type": "Point",
                "coordinates": [
                    132.447543,
                    34.374151
                ]
            },
            "properties": {
                "PriceCategory": "不動産取引価格情報",
                "Type": "宅地(土地と建物)",
                "Region": "住宅地",
                "MunicipalityCode": "34101",
                "Prefecture": "広島県",
                "Municipality": "広島市中区",
                "DistrictName": "吉島西",
                "TradePrice": "12000000",
                "PricePerUnit": "",
                "FloorPlan": "",
                "Area": "70",
                "UnitPrice": "",
                "LandShape": "長方形",
                "Frontage": "10.5",
                "TotalFloorArea": "65",
                "BuildingYear": "1978年",
                "Structure": "木造",
                "Use": "住宅",
                "Purpose": "住宅",
                "Direction": "南",
                "Classification": "私道",
                "Breadth": "4.2",
                "CityPlanning": "第２種住居地域",
                "CoverageRatio": "60",
                "FloorAreaRatio": "200",
                "Period": "2025年第2四半期",
                "Renovation": "",
                "Remarks": "",
                "DistrictCode": "341010770",
                "lat": "34.374151",
                "lon": "132.447543"
            }
        },
        {
            "type": "Feature",
            "geometry": {
                "type": "Point",
                "coordinates": [
                    132.447543,
                    34.374151
                ]
            },
            "properties": {
                "PriceCategory": "不動産取引価格情報",
                "Type": "宅地(土地)",
                "Region": "住宅地",
                "MunicipalityCode": "34101",
                "Prefecture": "広島県",
                "Municipality": "広島市中区",
                "DistrictName": "吉島西",
                "TradePrice": "72000000",
                "PricePerUnit": "770000",
                "FloorPlan": "",
                "Area": "310",
                "UnitPrice": "230000",
                "LandShape": "ほぼ長方形",
                "Frontage": "19",
                "TotalFloorArea": "",
                "BuildingYear": "",
                "Structure": "",
                "Use": "",
                "Purpose": "住宅",
                "Direction": "西",
                "Classification": "市道",
                "Breadth": "4.7",
                "CityPlanning": "第２種住居地域",
                "CoverageRatio": "60",
                "FloorAreaRatio": "200",
                "Period": "2025年第2四半期",
                "Renovation": "",
                "Remarks": "",
                "DistrictCode": "341010770",
                "lat": "34.374151",
                "lon": "132.447543"
            }
        },
        {
            "type": "Feature",
            "geometry": {
                "type": "Point",
                "coordinates": [
                    132.447543,
                    34.374151
                ]
            },
            "properties": {
                "PriceCategory": "不動産取引価格情報",
                "Type": "宅地(土地)",
                "Region": "住宅地",
                "MunicipalityCode": "34101",
                "Prefecture": "広島県",
                "Municipality": "広島市中区",
                "DistrictName": "吉島西",
                "TradePrice": "21000000",
                "PricePerUnit": "640000",
                "FloorPlan": "",
                "Area": "105",
                "UnitPrice": "190000",
                "LandShape": "長方形",
                "Frontage": "7.4",
                "TotalFloorArea": "",
                "BuildingYear": "",
                "Structure": "",
                "Use": "",
                "Purpose": "その他",
                "Direction": "北",
                "Classification": "私道",
                "Breadth": "3.7",
                "CityPlanning": "第２種住居地域",
                "CoverageRatio": "60",
                "FloorAreaRatio": "200",
                "Period": "2025年第2四半期",
                "Renovation": "",
                "Remarks": "",
                "DistrictCode": "341010770",
                "lat": "34.374151",
                "lon": "132.447543"
            }
        }
    ]
}